satname,norad_id,inclination_deg,eccentricity,mean_motion_rev_per_day,perigee_km,apogee_km,l1,l2
STARLINK-1522,46027,53.054,0.0001416,15.06396889,546.2404620156913,548.20172342755,1 46027U 20055A   26034.65977358  .00000742  00000+0  68737-4 0  9993,2 46027  53.0540 279.3829 0001416  91.0953 269.0199 15.06396889303756
STARLINK-1523,46028,53.0539,0.0001327,15.06389913,546.3234754568848,548.1614711691027,1 46028U 20055B   26033.67932389  .00001350  00000+0  10955-3 0  9994,2 46028  53.0539 283.7871 0001327  87.9347 272.1794 15.06389913303625
STARLINK-1526,46029,53.0549,7.13e-05,15.06422581,546.6485788722994,547.6361237077945,1 46029U 20055C   26034.66713217  .00002721  00000+0  20134-3 0  9995,2 46029  53.0549 279.3474 0000713  85.3016 274.8055 15.06422581303763
STARLINK-1555,46032,53.0538,0.0001185,15.06389222,546.4239334343638,548.0652488714668,1 46032U 20055F   26034.25430522  .00001002  00000+0  86155-4 0  9996,2 46032  53.0538 281.2049 0001185  91.7503 268.3622 15.06389222303707
STARLINK-1556,46033,53.0532,0.000236,15.06390025,545.6077405706237,548.876519520004,1 46033U 20055G   26034.36856962 -.00009518  00000+0 -62105-3 0  9999,2 46033  53.0532 280.6903 0002360  87.3968 272.7291 15.06390025303698
STARLINK-1557,46034,53.0545,8.52e-05,15.06426963,546.538888802741,547.7189541157586,1 46034U 20055H   26034.10684811  .00003051  00000+0  22344-3 0  9999,2 46034  53.0545 281.8650 0000852 157.9416 202.1610 15.06426963303650
STARLINK-1558,46035,53.0547,0.0001519,15.06400786,546.1571888825029,548.261109042558,1 46035U 20055J   26034.37964443  .00002097  00000+0  15962-3 0  9998,2 46035  53.0547 280.6401 0001519  90.4619 269.6544 15.06400786303728
STARLINK-1560,46036,53.0549,0.000201,15.06394445,545.8365847832938,548.6205817477658,1 46036U 20055K   26034.09951464 -.00001555  00000+0 -85521-4 0  9996,2 46036  53.0549 281.8954 0002010 121.5610 238.5575 15.06394445303689
STARLINK-1567,46038,53.0548,0.0001611,15.06394484,546.1127873592059,548.3441401116215,1 46038U 20055M   26034.37595842  .00000580  00000+0  57823-4 0  9992,2 46038  53.0548 280.6586 0001611  88.7679 271.3494 15.06394484303715
STARLINK-1569,46039,53.0526,0.0001455,15.06381784,546.2597415788496,548.2750342557329,1 46039U 20055N   26034.38334635 -.00002815  00000+0 -17023-3 0  9997,2 46039  53.0526 280.6249 0001455  92.9984 267.1172 15.06381784303715
STARLINK-1582,46043,53.0558,0.0001649,15.06399239,546.0718999328456,548.3558806564643,1 46043U 20055S   26034.65609364  .00000598  00000+0  59071-4 0  9990,2 46043  53.0558 279.3968 0001649  93.4300 266.6878 15.06399239303756
STARLINK-1591,46045,53.0529,0.0001466,15.06396254,546.2077811308418,548.2382966942514,1 46045U 20055U   26034.08477049 -.00001677  00000+0 -93699-4 0  9997,2 46045  53.0529 281.9649 0001466  90.1862 269.9295 15.06396254303657
STARLINK-1524,46047,53.0527,0.0001546,15.06412962,546.101178814647,548.242484305365,1 46047U 20055W   26034.63490104  .00004589  00000+0  32666-3 0  9996,2 46047  53.0527 269.4952 0001546  91.6994 268.4172 15.06412962303895
STARLINK-1527,46048,53.054,0.0001551,15.06390482,546.1666033052024,548.3148554768595,1 46048U 20055X   26034.10043629 -.00000245  00000+0  24457-5 0  9992,2 46048  53.0540 271.8965 0001551  92.1494 267.9673 15.06390482303790
STARLINK-1540,46051,53.0566,0.0001477,15.06413727,546.146619211675,548.1923547479291,1 46051U 20055AA  26034.66436469 -.00002168  00000+0 -12667-3 0  9990,2 46051  53.0566 269.3628 0001477  91.1731 268.9428 15.06413727303911
STARLINK-1541,46052,53.0537,0.0001404,15.06406874,546.218174218805,548.162806178053,1 46052U 20055AB  26034.64963266  .00003451  00000+0  25038-3 0  9999,2 46052  53.0537 269.4293 0001404  85.9826 274.1324 15.06406874303879
STARLINK-1543,46053,53.0542,0.0002064,15.06422218,545.7140859174633,548.5728416929223,1 46053U 20055AC  26033.65811259  .00002987  00000+0  21923-3 0  9996,2 46053  53.0542 273.8802 0002064  87.3986 272.7240 15.06422218303755
STARLINK-1548,46054,53.0548,0.0001458,15.06416465,546.1513870819708,548.1708040066324,1 46054U 20055AD  26034.06355053  .00002948  00000+0  21659-3 0  9991,2 46054  53.0548 272.0591 0001458  92.9999 267.1157 15.06416465303819
STARLINK-1554,46055,53.053,0.0001422,15.06405922,546.2086259366561,548.1781899046682,1 46055U 20055AE  26034.04884274  .00007263  00000+0  50593-3 0  9996,2 46055  53.0530 272.1266 0001422  83.0609 277.0542 15.06405922303815
STARLINK-1564,46058,53.0559,0.0001719,15.06396251,546.0325787148831,548.4135174994226,1 46058U 20055AH  26034.39167914  .00000294  00000+0  38666-4 0  9997,2 46058  53.0559 271.0516 0001719  83.8764 276.2421 15.06396251303859
STARLINK-1570,46059,53.0538,0.0001498,15.06405627,546.1568974168531,548.2317266779428,1 46059U 20055AJ  26033.09416759  .00000553  00000+0  55995-4 0  9990,2 46059  53.0538 276.4133 0001498  92.1802 267.9359 15.06405627303621
STARLINK-1572,46060,53.0541,0.0001469,15.06393023,546.2156046765294,548.250278365349,1 46060U 20055AK  26034.35108019  .00002690  00000+0  19946-3 0  9998,2 46060  53.0541 270.7696 0001469 104.6052 255.5100 15.06393023303827
STARLINK-1573,46061,53.0545,0.000149,15.06389885,546.210677575611,548.2744406842303,1 46061U 20055AL  26034.28104997  .00000145  00000+0  28663-4 0  9992,2 46061  53.0545 271.1212 0001490  81.6646 278.4512 15.06389885303842
STARLINK-1577,46063,53.0531,0.0001493,15.06395587,546.1911266216885,548.2590397397262,1 46063U 20055AN  26034.04145481  .00000084  00000+0  24537-4 0  9999,2 46063  53.0531 272.1591 0001493  81.9077 278.2081 15.06395587303805
STARLINK-1583,46064,53.0549,0.0001584,15.06399083,546.1173927558739,548.311344069386,1 46064U 20055AP  26034.34002055  .00001868  00000+0  14427-3 0  9999,2 46064  53.0549 270.8180 0001584  91.7167 268.4003 15.06399083303859
STARLINK-1525,46066,53.0543,0.0001359,15.06408933,546.243028566837,548.1253308634841,1 46066U 20055AR  26034.00642292  .00001192  00000+0  98908-4 0  9994,2 46066  53.0543 252.3158 0001359  90.8026 269.3119 15.06408933304077
STARLINK-1536,46070,53.0546,0.0001525,15.06408687,546.1288220674978,548.241045257264,1 46070U 20055AV  26034.58143091  .00001943  00000+0  14924-3 0  9994,2 46070  53.0546 249.7341 0001525  98.1004 262.0158 15.06408687304171
STARLINK-1542,46073,53.0558,0.0001401,15.0639548,546.2551678481195,548.1956543957158,1 46073U 20055AY  26034.57408921  .00001794  00000+0  13932-3 0  9994,2 46073  53.0558 249.7665 0001401  88.6851 271.4298 15.06395480304167
